{"type": "FeatureCollection", "features": [ {"type": "Feature", "properties": {"norad_id": 66925, "name": "STARLINK-35945", "group": "last-30-days", "lat": 32.02651641718046, "lon": 167.05547903178442, "alt_km": 328.1642287729592, "timestamp": "2025-12-19T18:58:40.329560+00:00", "meta": {"OBJECT_NAME": "STARLINK-35945", "OBJECT_ID": "2025-286A", "EPOCH": "2025-12-19T06:00:02.000160", "MEAN_MOTION": 15.80819715, "ECCENTRICITY": 8.055e-05, "INCLINATION": 53.1565, "RA_OF_ASC_NODE": 17.7343, "ARG_OF_PERICENTER": 79.3855, "MEAN_ANOMALY": 221.5287, "EPHEMERIS_TYPE": 0, "CLASSIFICATION_TYPE": "U", "NORAD_CAT_ID": 66925, "ELEMENT_SET_NO": 999, "REV_AT_EPOCH": 303, "BSTAR": -0.0075503395, "MEAN_MOTION_DOT": -0.01306897, "MEAN_MOTION_DDOT": 0}, "tle": {"line1": "1 66925U 25286A   25353.25002315 -.01306897  00000+0 -75503-2 0  9994", "line2": "2 66925  53.1565  17.7343 0000805  79.3855 221.5287 15.80819715  3038"}}, "geometry": {"type": "Point", "coordinates": [167.05547903178442, 32.02651641718046]}}, {"type": "Feature", "properties": {"norad_id": 66926, "name": "STARLINK-35942", "group": "last-30-days", "lat": 28.80901631117663, "lon": 170.66241776953783, "alt_km": 328.8267861609547, "timestamp": "2025-12-19T18:58:40.329570+00:00", "meta": {"OBJECT_NAME": "STARLINK-35942", "OBJECT_ID": "2025-286B", "EPOCH": "2025-12-19T06:00:02.000160", "MEAN_MOTION": 15.80785673, "ECCENTRICITY": 8.325e-05, "INCLINATION": 53.1561, "RA_OF_ASC_NODE": 17.7244, "ARG_OF_PERICENTER": 84.5862, "MEAN_ANOMALY": 220.8911, "EPHEMERIS_TYPE": 0, "CLASSIFICATION_TYPE": "U", "NORAD_CAT_ID": 66926, "ELEMENT_SET_NO": 999, "REV_AT_EPOCH": 303, "BSTAR": -0.0076726728, "MEAN_MOTION_DOT": -0.01323599, "MEAN_MOTION_DDOT": 0}, "tle": {"line1": "1 66926U 25286B   25353.25002315 -.01323599  00000+0 -76727-2 0  9992", "line2": "2 66926  53.1561  17.7244 0000832  84.5862 220.8911 15.80785673  3032"}}, "geometry": {"type": "Point", "coordinates": [170.66241776953783, 28.80901631117663]}}, {"type": "Feature", "properties": {"norad_id": 66927, "name": "STARLINK-35943", "group": "last-30-days", "lat": 27.27245936448833, "lon": 172.2719574499648, "alt_km": 329.1595853879089, "timestamp": "2025-12-19T18:58:40.329584+00:00", "meta": {"OBJECT_NAME": "STARLINK-35943", "OBJECT_ID": "2025-286C", "EPOCH": "2025-12-19T06:00:02.000160", "MEAN_MOTION": 15.80783174, "ECCENTRICITY": 9.228e-05, "INCLINATION": 53.156, "RA_OF_ASC_NODE": 17.7204, "ARG_OF_PERICENTER": 78.3567, "MEAN_ANOMALY": 229.2216, "EPHEMERIS_TYPE": 0, "CLASSIFICATION_TYPE": "U", "NORAD_CAT_ID": 66927, "ELEMENT_SET_NO": 999, "REV_AT_EPOCH": 303, "BSTAR": -0.0077017749, "MEAN_MOTION_DOT": -0.01327909, "MEAN_MOTION_DDOT": 0}, "tle": {"line1": "1 66927U 25286C   25353.25002315 -.01327909  00000+0 -77018-2 0  9996", "line2": "2 66927  53.1560  17.7204 0000922  78.3567 229.2216 15.80783174  3036"}}, "geometry": {"type": "Point", "coordinates": [172.2719574499648, 27.27245936448833]}}, {"type": "Feature", "properties": {"norad_id": 66928, "name": "STARLINK-35944", "group": "last-30-days", "lat": 30.34091321539915, "lon": 168.9884611546552, "alt_km": 328.5712994445639, "timestamp": "2025-12-19T18:58:40.329594+00:00", "meta": {"OBJECT_NAME": "STARLINK-35944", "OBJECT_ID": "2025-286D", "EPOCH": "2025-12-19T06:00:02.000160", "MEAN_MOTION": 15.80790228, "ECCENTRICITY": 7.954e-05, "INCLINATION": 53.1562, "RA_OF_ASC_NODE": 17.7289, "ARG_OF_PERICENTER": 80.418, "MEAN_ANOMALY": 222.9272, "EPHEMERIS_TYPE": 0, "CLASSIFICATION_TYPE": "U", "NORAD_CAT_ID": 66928, "ELEMENT_SET_NO": 999, "REV_AT_EPOCH": 303, "BSTAR": -0.0076216026, "MEAN_MOTION_DOT": -0.01316107, "MEAN_MOTION_DDOT": 0}, "tle": {"line1": "1 66928U 25286D   25353.25002315 -.01316107  00000+0 -76216-2 0  9994", "line2": "2 66928  53.1562  17.7289 0000795  80.4180 222.9272 15.80790228  3035"}}, "geometry": {"type": "Point", "coordinates": [168.9884611546552, 30.34091321539915]}}, {"type": "Feature", "properties": {"norad_id": 66929, "name": "STARLINK-36169", "group": "last-30-days", "lat": 25.64637044927216, "lon": 173.90754392246964, "alt_km": 329.5838722277085, "timestamp": "2025-12-19T18:58:40.329606+00:00", "meta": {"OBJECT_NAME": "STARLINK-36169", "OBJECT_ID": "2025-286E", "EPOCH": "2025-12-19T06:00:02.000160", "MEAN_MOTION": 15.80770523, "ECCENTRICITY": 9.035e-05, "INCLINATION": 53.1563, "RA_OF_ASC_NODE": 17.7155, "ARG_OF_PERICENTER": 73.4082, "MEAN_ANOMALY": 236.3933, "EPHEMERIS_TYPE": 0, "CLASSIFICATION_TYPE": "U", "NORAD_CAT_ID": 66929, "ELEMENT_SET_NO": 999, "REV_AT_EPOCH": 303, "BSTAR": -0.0077588862, "MEAN_MOTION_DOT": -0.01361287, "MEAN_MOTION_DDOT": 0}, "tle": {"line1": "1 66929U 25286E   25353.25002315 -.01361287  00000+0 -77589-2 0  9998", "line2": "2 66929  53.1563  17.7155 0000903  73.4082 236.3933 15.80770523  3032"}}, "geometry": {"type": "Point", "coordinates": [173.90754392246964, 25.64637044927216]}}, {"type": "Feature", "properties": {"norad_id": 66930, "name": "STARLINK-36206", "group": "last-30-days", "lat": 24.099034221260126, "lon": 175.4065318288077, "alt_km": 329.8322245822228, "timestamp": "2025-12-19T18:58:40.329628+00:00", "meta": {"OBJECT_NAME": "STARLINK-36206", "OBJECT_ID": "2025-286F", "EPOCH": "2025-12-19T06:00:02.000160", "MEAN_MOTION": 15.80768929, "ECCENTRICITY": 7.013e-05, "INCLINATION": 53.1561, "RA_OF_ASC_NODE": 17.711, "ARG_OF_PERICENTER": 80.7864, "MEAN_ANOMALY": 231.0833, "EPHEMERIS_TYPE": 0, "CLASSIFICATION_TYPE": "U", "NORAD_CAT_ID": 66930, "ELEMENT_SET_NO": 999, "REV_AT_EPOCH": 303, "BSTAR": -0.0077684712, "MEAN_MOTION_DOT": -0.0136259, "MEAN_MOTION_DDOT": 0}, "tle": {"line1": "1 66930U 25286F   25353.25002315 -.01362590  00000+0 -77685-2 0  9995", "line2": "2 66930  53.1561  17.7110 0000701  80.7864 231.0833 15.80768929  3036"}}, "geometry": {"type": "Point", "coordinates": [175.4065318288077, 24.099034221260126]}}, {"type": "Feature", "properties": {"norad_id": 66931, "name": "STARLINK-36130", "group": "last-30-days", "lat": 22.413784722463223, "lon": 176.98364526266965, "alt_km": 330.2168177557478, "timestamp": "2025-12-19T18:58:40.329639+00:00", "meta": {"OBJECT_NAME": "STARLINK-36130", "OBJECT_ID": "2025-286G", "EPOCH": "2025-12-19T06:00:02.000160", "MEAN_MOTION": 15.80754232, "ECCENTRICITY": 8.368e-05, "INCLINATION": 53.1561, "RA_OF_ASC_NODE": 17.7063, "ARG_OF_PERICENTER": 77.1488, "MEAN_ANOMALY": 236.9841, "EPHEMERIS_TYPE": 0, "CLASSIFICATION_TYPE": "U", "NORAD_CAT_ID": 66931, "ELEMENT_SET_NO": 999, "REV_AT_EPOCH": 303, "BSTAR": -0.0078424521, "MEAN_MOTION_DOT": -0.013734, "MEAN_MOTION_DDOT": 0}, "tle": {"line1": "1 66931U 25286G   25353.25002315 -.01373400  00000+0 -78425-2 0  9991", "line2": "2 66931  53.1561  17.7063 0000836  77.1488 236.9841 15.80754232  3030"}}, "geometry": {"type": "Point", "coordinates": [176.98364526266965, 22.413784722463223]}}, {"type": "Feature", "properties": {"norad_id": 66932, "name": "STARLINK-36177", "group": "last-30-days", "lat": 20.738364590194628, "lon": 178.50039741094653, "alt_km": 330.5430038328841, "timestamp": "2025-12-19T18:58:40.329649+00:00", "meta": {"OBJECT_NAME": "STARLINK-36177", "OBJECT_ID": "2025-286H", "EPOCH": "2025-12-19T06:00:02.000160", "MEAN_MOTION": 15.80741384, "ECCENTRICITY": 8.439e-05, "INCLINATION": 53.1559, "RA_OF_ASC_NODE": 17.7017, "ARG_OF_PERICENTER": 79.2792, "MEAN_ANOMALY": 237.0771, "EPHEMERIS_TYPE": 0, "CLASSIFICATION_TYPE": "U", "NORAD_CAT_ID": 66932, "ELEMENT_SET_NO": 999, "REV_AT_EPOCH": 303, "BSTAR": -0.0078864324, "MEAN_MOTION_DOT": -0.01379534, "MEAN_MOTION_DDOT": 0}, "tle": {"line1": "1 66932U 25286H   25353.25002315 -.01379534  00000+0 -78864-2 0  9993", "line2": "2 66932  53.1559  17.7017 0000843  79.2792 237.0771 15.80741384  3034"}}, "geometry": {"type": "Point", "coordinates": [178.50039741094653, 20.738364590194628]}}, {"type": "Feature", "properties": {"norad_id": 66933, "name": "STARLINK-36157", "group": "last-30-days", "lat": 19.067708577192676, "lon": 179.9684875551272, "alt_km": 330.94049054116476, "timestamp": "2025-12-19T18:58:40.329659+00:00", "meta": {"OBJECT_NAME": "STARLINK-36157", "OBJECT_ID": "2025-286J", "EPOCH": "2025-12-19T06:00:02.000160", "MEAN_MOTION": 15.80729284, "ECCENTRICITY": 7.749e-05, "INCLINATION": 53.156, "RA_OF_ASC_NODE": 17.6972, "ARG_OF_PERICENTER": 76.0305, "MEAN_ANOMALY": 242.5239, "EPHEMERIS_TYPE": 0, "CLASSIFICATION_TYPE": "U", "NORAD_CAT_ID": 66933, "ELEMENT_SET_NO": 999, "REV_AT_EPOCH": 303, "BSTAR": -0.0079224149, "MEAN_MOTION_DOT": -0.01384409, "MEAN_MOTION_DDOT": 0}, "tle": {"line1": "1 66933U 25286J   25353.25002315 -.01384409  00000+0 -79224-2 0  9992", "line2": "2 66933  53.1560  17.6972 0000774  76.0305 242.5239 15.80729284  3039"}}, "geometry": {"type": "Point", "coordinates": [179.9684875551272, 19.067708577192676]}}, {"type": "Feature", "properties": {"norad_id": 66934, "name": "STARLINK-36153", "group": "last-30-days", "lat": 17.378022688072374, "lon": -178.58715376547585, "alt_km": 331.259125337956, "timestamp": "2025-12-19T18:58:40.329671+00:00", "meta": {"OBJECT_NAME": "STARLINK-36153", "OBJECT_ID": "2025-286K", "EPOCH": "2025-12-19T06:00:02.000160", "MEAN_MOTION": 15.80719702, "ECCENTRICITY": 7.934e-05, "INCLINATION": 53.156, "RA_OF_ASC_NODE": 17.6921, "ARG_OF_PERICENTER": 79.0503, "MEAN_ANOMALY": 241.7138, "EPHEMERIS_TYPE": 0, "CLASSIFICATION_TYPE": "U", "NORAD_CAT_ID": 66934, "ELEMENT_SET_NO": 999, "REV_AT_EPOCH": 303, "BSTAR": -0.0079944698, "MEAN_MOTION_DOT": -0.01395073, "MEAN_MOTION_DDOT": 0}, "tle": {"line1": "1 66934U 25286K   25353.25002315 -.01395073  00000+0 -79945-2 0  9992", "line2": "2 66934  53.1560  17.6921 0000793  79.0503 241.7138 15.80719702  3031"}}, "geometry": {"type": "Point", "coordinates": [-178.58715376547585, 17.378022688072374]}}]}